[{"OBJECT_NAME":"OBJECT C","OBJECT_ID":"2025-226C","EPOCH":"2026-03-09T22:35:45.758112","MEAN_MOTION":15.1432456,"ECCENTRICITY":0.00153316,"INCLINATION":97.6396,"RA_OF_ASC_NODE":148.5375,"ARG_OF_PERICENTER":120.7219,"MEAN_ANOMALY":239.5525,"EPHEMERIS_TYPE":0,"CLASSIFICATION_TYPE":"U","NORAD_CAT_ID":65940,"ELEMENT_SET_NO":999,"REV_AT_EPOCH":2265,"BSTAR":0.00059133816,"MEAN_MOTION_DOT":0.00010804,"MEAN_MOTION_DDOT":0},{"OBJECT_NAME":"COSMOS 252 DEB","OBJECT_ID":"1968-097M","EPOCH":"2026-03-09T21:05:06.660384","MEAN_MOTION":14.13882086,"ECCENTRICITY":0.04456891,"INCLINATION":62.2949,"RA_OF_ASC_NODE":295.7795,"ARG_OF_PERICENTER":231.9059,"MEAN_ANOMALY":124.1012,"EPHEMERIS_TYPE":0,"CLASSIFICATION_TYPE":"U","NORAD_CAT_ID":3559,"ELEMENT_SET_NO":999,"REV_AT_EPOCH":82984,"BSTAR":0.00064426371,"MEAN_MOTION_DOT":3.06e-5,"MEAN_MOTION_DDOT":0}]
